OBJECT_NAME,OBJECT_ID,EPOCH,MEAN_MOTION,ECCENTRICITY,INCLINATION,RA_OF_ASC_NODE,ARG_OF_PERICENTER,MEAN_ANOMALY,EPHEMERIS_TYPE,CLASSIFICATION_TYPE,NORAD_CAT_ID,ELEMENT_SET_NO,REV_AT_EPOCH,BSTAR,MEAN_MOTION_DOT,MEAN_MOTION_DDOT
LEMUR-1,2014-033AL,2026-07-19T23:12:38.966688,14.85344509,.0047361,97.7916,350.0530,332.0812,27.7862,0,U,40044,999,65033,.87591555E-4,.712E-5,0
LEMUR-2-GREENBERG,2017-042N,2026-07-19T22:40:49.332288,15.32243019,.00074481,97.3842,21.4445,239.5677,120.4829,0,U,42837,999,49340,.30659889E-3,.9476E-4,0
LEMUR-2-ANDIS,2017-042P,2026-07-20T00:38:02.866848,15.36045973,.00074525,97.3691,21.8287,238.1835,121.8684,0,U,42838,999,49349,.35312306E-3,.12331E-3,0
LEMUR-2-MONSON,2017-042Q,2026-07-20T06:54:00.768096,15.28834700,.0005637,97.4103,21.7059,223.9790,136.1002,0,U,42839,999,49322,.29034872E-3,.8064E-4,0
LEMUR-2-FURIAUS,2017-042R,2026-07-20T06:54:30.112992,15.31229856,.00057228,97.3789,19.6669,307.6330,52.4391,0,U,42840,999,49327,.32045388E-3,.9596E-4,0
LEMUR-2-PETERG,2017-042S,2026-07-19T10:38:36.824928,15.35124199,.00036319,97.4004,25.5577,202.2189,157.8897,0,U,42841,999,49338,.31942597E-3,.10813E-3,0
LEMUR-2-DEMBITZ,2017-042T,2026-07-20T05:48:56.819520,15.31202407,.00052034,97.3838,22.6689,250.9510,109.1168,0,U,42842,999,49340,.31424905E-3,.94E-4,0
LEMUR-2-ZACHARY,2017-042W,2026-07-20T06:31:24.692448,15.53032139,.00029111,97.3580,33.6791,222.3837,137.7191,0,U,42845,999,49433,.52121432E-3,.32527E-3,0
LEMUR-2-AMANDA-SVANTE,2021-034B,2026-07-20T03:23:13.690752,15.36146880,.00047941,97.5741,280.3406,132.6978,227.4670,0,U,48269,999,28611,.53964905E-3,.18952E-3,0
LEMUR-2-SPECIAL-K,2021-034F,2026-07-20T05:22:04.371744,15.76546996,.00061991,97.5619,290.7675,211.4467,148.6428,0,U,48273,999,28687,.12052863E-2,.195176E-2,0
LEMUR-2-EMBRIONOVIS,2023-084AQ,2026-07-20T07:39:16.344288,15.38311947,.00087208,97.6331,346.8170,187.6911,172.4201,0,U,56970,999,17277,.21159645E-3,.7911E-4,0
LEMUR-2-DEVERILL-M-T,2023-100F,2026-07-20T02:24:23.855040,15.41239918,.00047783,99.4446,249.4061,276.3881,83.6815,0,U,57391,999,16631,.36633181E-3,.15122E-3,0
LEMUR-2-BASS,2023-174D,2026-07-20T03:23:11.717376,15.44094860,.00073416,97.3836,286.3374,63.3978,296.8021,0,U,58259,999,15044,.22142683E-3,.10045E-3,0
LEMUR-2-JK0903EM1407,2023-174CJ,2026-07-19T19:43:55.386048,15.53221514,.00031139,97.3916,292.2502,14.6736,345.4607,0,U,58336,999,15079,.25655286E-3,.16037E-3,0
LEMUR-2-MJR092620,2023-174CN,2026-07-20T05:52:27.365952,15.45975607,.00048162,97.3966,291.9096,11.4703,348.6656,0,U,58340,999,15075,.23323837E-3,.11283E-3,0
LEMUR-2-NIMBUS2000,2024-022A,2026-07-20T03:18:49.742208,15.41242094,.00082222,97.4082,51.5781,11.6062,348.5373,0,U,58899,999,13734,.30252617E-3,.12507E-3,0
LEMUR-2-VALHALLA,2024-022B,2026-07-20T03:28:48.441504,15.40578281,.00087005,97.4081,51.5501,7.0064,353.1302,0,U,58900,999,13734,.21984998E-3,.8865E-4,0
LEMUR-2-CAEL,2024-022E,2026-07-20T03:01:44.537952,15.41954913,.00066356,97.4057,52.5269,350.9129,9.1997,0,U,58903,999,13741,.23614378E-3,.9971E-4,0
LEMUR-2-JOHNNYTRUONG,2024-043BA,2026-07-19T22:57:17.115840,15.62815408,.00037799,97.5403,354.7548,80.2627,279.9058,0,U,59146,999,13315,.3042203E-3,.27316E-3,0
LEMUR-2-TOMATOKECHUP,2024-149D,2026-07-20T03:05:26.284416,15.36642534,.00034351,97.3786,283.2728,112.8454,247.3153,0,U,60471,999,10722,.17338804E-3,.6122E-4,0
LEMUR-2-STELLA,2024-149BT,2026-07-20T02:26:56.237856,15.12429957,.0001313,97.6727,283.7150,123.2741,236.8616,0,U,60533,999,10547,.36400594E-3,.6259E-4,0
LEMUR-2-MARHISYAM,2024-149BW,2026-07-20T00:41:19.122720,15.11830054,.00022493,97.6872,284.1228,62.5064,297.6394,0,U,60536,999,10544,.30732993E-3,.5186E-4,0
LEMUR-2-AHMED-ASRAR,2024-149DN,2026-07-19T18:22:47.783712,15.13363648,.00016238,97.6999,286.0796,184.9138,175.2077,0,U,60576,999,10549,.32371882E-3,.5706E-4,0
LEMUR-2-LLOYD,2024-149DP,2026-07-20T04:27:20.740608,15.09799638,.00042372,97.6730,282.3442,58.5473,301.6170,0,U,60577,999,10537,.34655099E-3,.5536E-4,0
LEMUR-2-SQUIRRELCOMM,2024-149DQ,2026-07-20T02:46:23.518272,15.07473407,.00040082,97.6698,281.9289,303.1916,56.8926,0,U,60578,999,10536,.22599456E-3,.3364E-4,0
LEMUR-2-SIERRINI,2024-149DR,2026-07-19T19:02:49.816896,15.11564081,.00061003,97.6829,283.5430,79.2614,280.9302,0,U,60579,999,10538,.34802522E-3,.584E-4,0
LEMUR-2-WILSON,2025-009CP,2026-07-20T03:41:30.171552,14.95286988,.00016525,97.7016,279.0405,294.9075,65.1974,0,U,62694,999,8228,.12278001E-3,.1295E-4,0
LEMUR-2-STAR-FOX,2025-009CR,2026-07-20T01:17:35.551680,15.02876982,.00016575,97.6899,282.4263,22.9564,337.1735,0,U,62696,999,8249,.30735874E-3,.4061E-4,0
LEMUR-2-ARIANNA,2025-009CU,2026-07-19T04:28:58.984320,15.02872906,.00020741,97.6840,281.3147,35.4388,324.6975,0,U,62699,999,8236,.29063805E-3,.3837E-4,0
LEMUR-2-ALISIA,2025-009DB,2026-07-20T03:45:44.508960,15.03215642,.00048544,97.6960,283.1117,115.7667,244.4059,0,U,62706,999,10511,.300277E-3,.4003E-4,0
