LEMUR-1                 
1 40044U 14033AL  26200.96711767  .00000712  00000+0  87592-4 0  9991
2 40044  97.7916 350.0530 0047361 332.0812  27.7862 14.85344509650331
LEMUR-2-GREENBERG       
1 42837U 17042N   26200.94501542  .00009476  00000+0  30660-3 0  9991
2 42837  97.3842  21.4445 0007448 239.5677 120.4829 15.32243019493407
LEMUR-2-ANDIS           
1 42838U 17042P   26201.02642207  .00012331  00000+0  35312-3 0  9999
2 42838  97.3691  21.8287 0007452 238.1835 121.8684 15.36045973493490
LEMUR-2-MONSON          
1 42839U 17042Q   26201.28750889  .00008064  00000+0  29035-3 0  9997
2 42839  97.4103  21.7059 0005637 223.9790 136.1002 15.28834700493220
LEMUR-2-FURIAUS         
1 42840U 17042R   26201.28784853  .00009596  00000+0  32045-3 0  9993
2 42840  97.3789  19.6669 0005722 307.6330  52.4391 15.31229856493279
LEMUR-2-PETERG          
1 42841U 17042S   26200.44348177  .00010813  00000+0  31943-3 0  9996
2 42841  97.4004  25.5577 0003631 202.2189 157.8897 15.35124199493385
LEMUR-2-DEMBITZ         
1 42842U 17042T   26201.24232430  .00009400  00000+0  31425-3 0  9995
2 42842  97.3838  22.6689 0005203 250.9510 109.1168 15.31202407493406
LEMUR-2-ZACHARY         
1 42845U 17042W   26201.27181357  .00032527  00000+0  52121-3 0  9994
2 42845  97.3580  33.6791 0002911 222.3837 137.7191 15.53032139494330
LEMUR-2-AMANDA-SVANTE   
1 48269U 21034B   26201.14113068  .00018952  00000+0  53965-3 0  9999
2 48269  97.5741 280.3406 0004794 132.6978 227.4670 15.36146880286115
LEMUR-2-SPECIAL-K       
1 48273U 21034F   26201.22366171  .00195176  00000+0  12053-2 0  9994
2 48273  97.5619 290.7675 0006199 211.4467 148.6428 15.76546996286871
LEMUR-2-EMBRIONOVIS     
1 56970U 23084AQ  26201.31893917  .00007911  00000+0  21160-3 0  9996
2 56970  97.6331 346.8170 0008720 187.6911 172.4201 15.38311947172770
LEMUR-2-DEVERILL-M-T    
1 57391U 23100F   26201.10027610  .00015122  00000+0  36633-3 0  9993
2 57391  99.4446 249.4061 0004778 276.3881  83.6815 15.41239918166311
LEMUR-2-BASS            
1 58259U 23174D   26201.14110784  .00010045  00000+0  22143-3 0  9997
2 58259  97.3836 286.3374 0007341  63.3978 296.8021 15.44094860150444
LEMUR-2-JK0903EM1407    
1 58336U 23174CJ  26200.82216882  .00016037  00000+0  25655-3 0  9991
2 58336  97.3916 292.2502 0003113  14.6736 345.4607 15.53221514150799
LEMUR-2-MJR092620       
1 58340U 23174CN  26201.24476118  .00011283  00000+0  23324-3 0  9992
2 58340  97.3966 291.9096 0004816  11.4703 348.6656 15.45975607150758
LEMUR-2-NIMBUS2000      
1 58899U 24022A   26201.13807572  .00012507  00000+0  30253-3 0  9993
2 58899  97.4082  51.5781 0008222  11.6062 348.5373 15.41242094137341
LEMUR-2-VALHALLA        
1 58900U 24022B   26201.14500511  .00008865  00000+0  21985-3 0  9994
2 58900  97.4081  51.5501 0008700   7.0064 353.1302 15.40578281137348
LEMUR-2-CAEL            
1 58903U 24022E   26201.12620993  .00009971  00000+0  23614-3 0  9992
2 58903  97.4057  52.5269 0006635 350.9129   9.1997 15.41954913137410
LEMUR-2-JOHNNYTRUONG    
1 59146U 24043BA  26200.95644810  .00027316  00000+0  30422-3 0  9997
2 59146  97.5403 354.7548 0003779  80.2627 279.9058 15.62815408133155
LEMUR-2-TOMATOKECHUP    
1 60471U 24149D   26201.12877644  .00006122  00000+0  17339-3 0  9994
2 60471  97.3786 283.2728 0003435 112.8454 247.3153 15.36642534107228
LEMUR-2-STELLA          
1 60533U 24149BT  26201.10203979  .00006259  00000+0  36401-3 0  9997
2 60533  97.6727 283.7150 0001313 123.2741 236.8616 15.12429957105475
LEMUR-2-MARHISYAM       
1 60536U 24149BW  26201.02869355  .00005186  00000+0  30733-3 0  9997
2 60536  97.6872 284.1228 0002249  62.5064 297.6394 15.11830054105440
LEMUR-2-AHMED-ASRAR     
1 60576U 24149DN  26200.76583083  .00005706  00000+0  32372-3 0  9991
2 60576  97.6999 286.0796 0001623 184.9138 175.2077 15.13363648105497
LEMUR-2-LLOYD           
1 60577U 24149DP  26201.18565672  .00005536  00000+0  34655-3 0  9990
2 60577  97.6730 282.3442 0004237  58.5473 301.6170 15.09799638105373
LEMUR-2-SQUIRRELCOMM    
1 60578U 24149DQ  26201.11554998  .00003364  00000+0  22599-3 0  9994
2 60578  97.6698 281.9289 0004008 303.1916  56.8926 15.07473407105366
LEMUR-2-SIERRINI        
1 60579U 24149DR  26200.79363214  .00005840  00000+0  34803-3 0  9999
2 60579  97.6829 283.5430 0006100  79.2614 280.9302 15.11564081105384
LEMUR-2-WILSON          
1 62694U 25009CP  26201.15382143  .00001295  00000+0  12278-3 0  9990
2 62694  97.7016 279.0405 0001652 294.9075  65.1974 14.95286988 82288
LEMUR-2-STAR-FOX        
1 62696U 25009CR  26201.05388370  .00004061  00000+0  30736-3 0  9992
2 62696  97.6899 282.4263 0001657  22.9564 337.1735 15.02876982 82493
LEMUR-2-ARIANNA         
1 62699U 25009CU  26200.18679380  .00003837  00000+0  29064-3 0  9994
2 62699  97.6840 281.3147 0002074  35.4388 324.6975 15.02872906 82363
LEMUR-2-ALISIA          
1 62706U 25009DB  26201.15676515  .00004003  00000+0  30028-3 0  9996
2 62706  97.6960 283.1117 0004854 115.7667 244.4059 15.03215642105112
